SL-4 R/B                
1 39679U 14021B   25358.12557226  .00011779  00000+0  28031-3 0  9996
2 39679  51.6093 345.2498 0100917 187.3084 172.6434 15.36923552644646
ALOS-2                  
1 39766U 14029A   25358.24063527  .00002164  00000+0  29652-3 0  9998
2 39766  97.9228  92.9233 0001378  97.5112 262.6256 14.79472967625718
YAOGAN-29               
1 41038U 15069A   25358.22322898  .00000683  00000+0  90906-4 0  9990
2 41038  98.0203  21.4310 0000820 168.3750 191.7482 14.82894344544698
ASTRO-H (HITOMI)        
1 41337U 16012A   25358.06445748  .00003733  00000+0  22183-3 0  9993
2 41337  30.9990 124.3584 0009719 292.2716  67.6891 15.09421870540791
HXMT (HUIYAN)           
1 42758U 17034A   25358.18695225  .00006361  00000+0  32984-3 0  9996
2 42758  43.0146  76.1003 0031157 118.6068 241.7920 15.16364002471072
CZ-2C R/B               
1 43521U 18054D   25358.01503610  .00111568  00000+0  66572-3 0  9992
2 43521  35.1338 104.3033 0014808 256.6010 103.3073 15.76417101416837
SAOCOM 1A               
1 43641U 18076A   25358.14869566  .00000213  00000+0  33339-4 0  9998
2 43641  97.8840 182.4043 0001381  83.5377 276.5994 14.82143278390176
H-2A R/B                
1 43682U 18084L   25358.08116838  .00019537  00000+0  52250-3 0  9993
2 43682  98.8767 194.5143 0026605 286.6674  73.1646 15.37769034394148
SAOCOM 1B               
1 46265U 20059A   25358.17996243 -.00000030  00000+0  27866-5 0  9990
2 46265  97.8836 181.5351 0001425  85.3512 274.7864 14.82147136287569
CSS (TIANHE)            
1 48274U 21035A   25357.92225808  .00014001  00000+0  17442-3 0  9990
2 48274  41.4684 308.7959 0008064 129.7988 230.3561 15.59613443265775
COSMOS 2550             
1 48865U 21056A   25358.20257698 -.00000140  00000+0  15709-5 0  9999
2 48865  67.1452 269.2617 0008383 268.6997  91.3197 15.33844403251889
CZ-2C R/B               
1 52794U 22058K   25358.16242584  .00026123  00000+0  46096-3 0  9990
2 52794  50.1923 345.2729 0044702 245.7110 113.9186 15.49041608198407
