CCSDS_OMM_VERS = 2.0
CREATION_DATE  = 
ORIGINATOR     = 

OBJECT_NAME    = SL-4 R/B
OBJECT_ID      = 2014-021B
CENTER_NAME    = EARTH
REF_FRAME      = TEME
TIME_SYSTEM    = UTC
MEAN_ELEMENT_THEORY = SGP/SGP4

EPOCH          = 2025-12-24T03:00:49.443264
MEAN_MOTION    = 15.36923552
ECCENTRICITY   = .0100917
INCLINATION    = 51.6093
RA_OF_ASC_NODE = 345.2498
ARG_OF_PERICENTER = 187.3084
MEAN_ANOMALY   = 172.6434

EPHEMERIS_TYPE = 0
CLASSIFICATION_TYPE = U
NORAD_CAT_ID   = 39679
ELEMENT_SET_NO = 999
REV_AT_EPOCH   = 64464
BSTAR          = .28031E-3
MEAN_MOTION_DOT = .11779E-3
MEAN_MOTION_DDOT = 0

CCSDS_OMM_VERS = 2.0
CREATION_DATE  = 
ORIGINATOR     = 

OBJECT_NAME    = ALOS-2
OBJECT_ID      = 2014-029A
CENTER_NAME    = EARTH
REF_FRAME      = TEME
TIME_SYSTEM    = UTC
MEAN_ELEMENT_THEORY = SGP/SGP4

EPOCH          = 2025-12-24T05:46:30.887328
MEAN_MOTION    = 14.79472967
ECCENTRICITY   = .0001378
INCLINATION    = 97.9228
RA_OF_ASC_NODE = 92.9233
ARG_OF_PERICENTER = 97.5112
MEAN_ANOMALY   = 262.6256

EPHEMERIS_TYPE = 0
CLASSIFICATION_TYPE = U
NORAD_CAT_ID   = 39766
ELEMENT_SET_NO = 999
REV_AT_EPOCH   = 62571
BSTAR          = .29652E-3
MEAN_MOTION_DOT = .2164E-4
MEAN_MOTION_DDOT = 0

CCSDS_OMM_VERS = 2.0
CREATION_DATE  = 
ORIGINATOR     = 

OBJECT_NAME    = YAOGAN-29
OBJECT_ID      = 2015-069A
CENTER_NAME    = EARTH
REF_FRAME      = TEME
TIME_SYSTEM    = UTC
MEAN_ELEMENT_THEORY = SGP/SGP4

EPOCH          = 2025-12-24T05:21:26.983872
MEAN_MOTION    = 14.82894344
ECCENTRICITY   = .000082
INCLINATION    = 98.0203
RA_OF_ASC_NODE = 21.4310
ARG_OF_PERICENTER = 168.3750
MEAN_ANOMALY   = 191.7482

EPHEMERIS_TYPE = 0
CLASSIFICATION_TYPE = U
NORAD_CAT_ID   = 41038
ELEMENT_SET_NO = 999
REV_AT_EPOCH   = 54469
BSTAR          = .90906E-4
MEAN_MOTION_DOT = .683E-5
MEAN_MOTION_DDOT = 0

CCSDS_OMM_VERS = 2.0
CREATION_DATE  = 
ORIGINATOR     = 

OBJECT_NAME    = ASTRO-H (HITOMI)
OBJECT_ID      = 2016-012A
CENTER_NAME    = EARTH
REF_FRAME      = TEME
TIME_SYSTEM    = UTC
MEAN_ELEMENT_THEORY = SGP/SGP4

EPOCH          = 2025-12-24T01:32:49.126272
MEAN_MOTION    = 15.09421870
ECCENTRICITY   = .0009719
INCLINATION    = 30.9990
RA_OF_ASC_NODE = 124.3584
ARG_OF_PERICENTER = 292.2716
MEAN_ANOMALY   = 67.6891

EPHEMERIS_TYPE = 0
CLASSIFICATION_TYPE = U
NORAD_CAT_ID   = 41337
ELEMENT_SET_NO = 999
REV_AT_EPOCH   = 54079
BSTAR          = .22183E-3
MEAN_MOTION_DOT = .3733E-4
MEAN_MOTION_DDOT = 0

CCSDS_OMM_VERS = 2.0
CREATION_DATE  = 
ORIGINATOR     = 

OBJECT_NAME    = HXMT (HUIYAN)
OBJECT_ID      = 2017-034A
CENTER_NAME    = EARTH
REF_FRAME      = TEME
TIME_SYSTEM    = UTC
MEAN_ELEMENT_THEORY = SGP/SGP4

EPOCH          = 2025-12-24T04:29:12.674400
MEAN_MOTION    = 15.16364002
ECCENTRICITY   = .0031157
INCLINATION    = 43.0146
RA_OF_ASC_NODE = 76.1003
ARG_OF_PERICENTER = 118.6068
MEAN_ANOMALY   = 241.7920

EPHEMERIS_TYPE = 0
CLASSIFICATION_TYPE = U
NORAD_CAT_ID   = 42758
ELEMENT_SET_NO = 999
REV_AT_EPOCH   = 47107
BSTAR          = .32984E-3
MEAN_MOTION_DOT = .6361E-4
MEAN_MOTION_DDOT = 0

CCSDS_OMM_VERS = 2.0
CREATION_DATE  = 
ORIGINATOR     = 

OBJECT_NAME    = CZ-2C R/B
OBJECT_ID      = 2018-054D
CENTER_NAME    = EARTH
REF_FRAME      = TEME
TIME_SYSTEM    = UTC
MEAN_ELEMENT_THEORY = SGP/SGP4

EPOCH          = 2025-12-24T00:21:39.119040
MEAN_MOTION    = 15.76417101
ECCENTRICITY   = .0014808
INCLINATION    = 35.1338
RA_OF_ASC_NODE = 104.3033
ARG_OF_PERICENTER = 256.6010
MEAN_ANOMALY   = 103.3073

EPHEMERIS_TYPE = 0
CLASSIFICATION_TYPE = U
NORAD_CAT_ID   = 43521
ELEMENT_SET_NO = 999
REV_AT_EPOCH   = 41683
BSTAR          = .66572E-3
MEAN_MOTION_DOT = .111568E-2
MEAN_MOTION_DDOT = 0

CCSDS_OMM_VERS = 2.0
CREATION_DATE  = 
ORIGINATOR     = 

OBJECT_NAME    = SAOCOM 1A
OBJECT_ID      = 2018-076A
CENTER_NAME    = EARTH
REF_FRAME      = TEME
TIME_SYSTEM    = UTC
MEAN_ELEMENT_THEORY = SGP/SGP4

EPOCH          = 2025-12-24T03:34:07.305024
MEAN_MOTION    = 14.82143278
ECCENTRICITY   = .0001381
INCLINATION    = 97.8840
RA_OF_ASC_NODE = 182.4043
ARG_OF_PERICENTER = 83.5377
MEAN_ANOMALY   = 276.5994

EPHEMERIS_TYPE = 0
CLASSIFICATION_TYPE = U
NORAD_CAT_ID   = 43641
ELEMENT_SET_NO = 999
REV_AT_EPOCH   = 39017
BSTAR          = .33339E-4
MEAN_MOTION_DOT = .213E-5
MEAN_MOTION_DDOT = 0

CCSDS_OMM_VERS = 2.0
CREATION_DATE  = 
ORIGINATOR     = 

OBJECT_NAME    = H-2A R/B
OBJECT_ID      = 2018-084L
CENTER_NAME    = EARTH
REF_FRAME      = TEME
TIME_SYSTEM    = UTC
MEAN_ELEMENT_THEORY = SGP/SGP4

EPOCH          = 2025-12-24T01:56:52.948032
MEAN_MOTION    = 15.37769034
ECCENTRICITY   = .0026605
INCLINATION    = 98.8767
RA_OF_ASC_NODE = 194.5143
ARG_OF_PERICENTER = 286.6674
MEAN_ANOMALY   = 73.1646

EPHEMERIS_TYPE = 0
CLASSIFICATION_TYPE = U
NORAD_CAT_ID   = 43682
ELEMENT_SET_NO = 999
REV_AT_EPOCH   = 39414
BSTAR          = .5225E-3
MEAN_MOTION_DOT = .19537E-3
MEAN_MOTION_DDOT = 0

CCSDS_OMM_VERS = 2.0
CREATION_DATE  = 
ORIGINATOR     = 

OBJECT_NAME    = SAOCOM 1B
OBJECT_ID      = 2020-059A
CENTER_NAME    = EARTH
REF_FRAME      = TEME
TIME_SYSTEM    = UTC
MEAN_ELEMENT_THEORY = SGP/SGP4

EPOCH          = 2025-12-24T04:19:08.753952
MEAN_MOTION    = 14.82147136
ECCENTRICITY   = .0001425
INCLINATION    = 97.8836
RA_OF_ASC_NODE = 181.5351
ARG_OF_PERICENTER = 85.3512
MEAN_ANOMALY   = 274.7864

EPHEMERIS_TYPE = 0
CLASSIFICATION_TYPE = U
NORAD_CAT_ID   = 46265
ELEMENT_SET_NO = 999
REV_AT_EPOCH   = 28756
BSTAR          = .27866E-5
MEAN_MOTION_DOT = -.3E-6
MEAN_MOTION_DDOT = 0

CCSDS_OMM_VERS = 2.0
CREATION_DATE  = 
ORIGINATOR     = 

OBJECT_NAME    = CSS (TIANHE)
OBJECT_ID      = 2021-035A
CENTER_NAME    = EARTH
REF_FRAME      = TEME
TIME_SYSTEM    = UTC
MEAN_ELEMENT_THEORY = SGP/SGP4

EPOCH          = 2025-12-23T22:08:03.098112
MEAN_MOTION    = 15.59613443
ECCENTRICITY   = .0008064
INCLINATION    = 41.4684
RA_OF_ASC_NODE = 308.7959
ARG_OF_PERICENTER = 129.7988
MEAN_ANOMALY   = 230.3561

EPHEMERIS_TYPE = 0
CLASSIFICATION_TYPE = U
NORAD_CAT_ID   = 48274
ELEMENT_SET_NO = 999
REV_AT_EPOCH   = 26577
BSTAR          = .17442E-3
MEAN_MOTION_DOT = .14001E-3
MEAN_MOTION_DDOT = 0

CCSDS_OMM_VERS = 2.0
CREATION_DATE  = 
ORIGINATOR     = 

OBJECT_NAME    = COSMOS 2550
OBJECT_ID      = 2021-056A
CENTER_NAME    = EARTH
REF_FRAME      = TEME
TIME_SYSTEM    = UTC
MEAN_ELEMENT_THEORY = SGP/SGP4

EPOCH          = 2025-12-24T04:51:42.651072
MEAN_MOTION    = 15.33844403
ECCENTRICITY   = .0008383
INCLINATION    = 67.1452
RA_OF_ASC_NODE = 269.2617
ARG_OF_PERICENTER = 268.6997
MEAN_ANOMALY   = 91.3197

EPHEMERIS_TYPE = 0
CLASSIFICATION_TYPE = U
NORAD_CAT_ID   = 48865
ELEMENT_SET_NO = 999
REV_AT_EPOCH   = 25188
BSTAR          = .15709E-5
MEAN_MOTION_DOT = -.14E-5
MEAN_MOTION_DDOT = 0

CCSDS_OMM_VERS = 2.0
CREATION_DATE  = 
ORIGINATOR     = 

OBJECT_NAME    = CZ-2C R/B
OBJECT_ID      = 2022-058K
CENTER_NAME    = EARTH
REF_FRAME      = TEME
TIME_SYSTEM    = UTC
MEAN_ELEMENT_THEORY = SGP/SGP4

EPOCH          = 2025-12-24T03:53:53.592576
MEAN_MOTION    = 15.49041608
ECCENTRICITY   = .0044702
INCLINATION    = 50.1923
RA_OF_ASC_NODE = 345.2729
ARG_OF_PERICENTER = 245.7110
MEAN_ANOMALY   = 113.9186

EPHEMERIS_TYPE = 0
CLASSIFICATION_TYPE = U
NORAD_CAT_ID   = 52794
ELEMENT_SET_NO = 999
REV_AT_EPOCH   = 19840
BSTAR          = .46096E-3
MEAN_MOTION_DOT = .26123E-3
MEAN_MOTION_DDOT = 0

